     2.100          NAVIGATION                              RINEX VERSION / TYPE
fic2rin                                 11/07/2017 00:34:55 PGM / RUN BY / DATE
                                                            END OF HEADER
16 17 11  6  2  0  0.0  .365749001503D-04 -.227373675443D-12  .000000000000D+00
     .570000000000D+02 -.290937500000D+02  .438518266046D-08 -.310689646751D+00
    -.151433050632D-05  .936142832506D-02  .784173607826D-06  .515378570175D+04
     .936000000000D+05  .409781932831D-07 -.113392549431D+01  .163912773132D-06
     .988447418471D+00  .376281250000D+03  .457652069491D+00 -.848999649958D-08
    -.205722854897D-09  .100000000000D+01  .197400000000D+04  .000000000000D+00
     .240000000000D+01  .000000000000D+00 -.107102096081D-07  .570000000000D+02
     .864060000000D+05  .400000000000D+01
17 17 11  6  2  0  0.0 -.146451871842D-03  .238742359215D-11  .000000000000D+00
     .400000000000D+01 -.119781250000D+03  .391516308226D-08 -.117533519578D+01
    -.620074570179D-05  .120904360665D-01  .101253390312D-04  .515371304321D+04
     .936000000000D+05 -.353902578354D-07 -.117772471593D+00  .318512320518D-06
     .981673427507D+00  .196812500000D+03 -.183488395156D+01 -.785604152138D-08
    -.281440294547D-09  .100000000000D+01  .197400000000D+04  .000000000000D+00
     .240000000000D+01  .000000000000D+00 -.111758708954D-07  .400000000000D+01
     .864060000000D+05  .400000000000D+01
18 17 11  6  2  0  0.0  .632348936051D-03  .454747350886D-12  .000000000000D+00
     .500000000000D+01 -.218750000000D+01  .596417700334D-08  .329347048547D+00
    -.130385160446D-06  .181672336766D-01  .474788248539D-05  .515362269783D+04
     .936000000000D+05 -.325962901115D-06  .187722677387D+01 -.931322574615D-08
     .925682227592D+00  .271968750000D+03 -.177369394602D+01 -.907359223725D-08
    -.482162941165D-10  .100000000000D+01  .197400000000D+04  .000000000000D+00
     .240000000000D+01  .000000000000D+00 -.111758708954D-07  .500000000000D+01
     .864060000000D+05  .400000000000D+01
19 17 11  6  2  0  0.0 -.477219000459D-03  .216004991671D-11  .000000000000D+00
     .480000000000D+02 -.128625000000D+03  .383551690753D-08  .180728060090D+01
    -.697560608387D-05  .986130640376D-02  .109691172838D-04  .515369002533D+04
     .936000000000D+05 -.100582838058D-06 -.703599959191D-01 -.180676579475D-06
     .979048801792D+00  .183437500000D+03  .108845961400D+01 -.769996359153D-08
    -.253939149013D-09  .100000000000D+01  .197400000000D+04  .000000000000D+00
     .240000000000D+01  .000000000000D+00 -.153668224812D-07  .480000000000D+02
     .864060000000D+05  .400000000000D+01
20 17 11  6  2  0  0.0  .491914339364D-03  .113686837722D-11  .000000000000D+00
     .200000000000D+01  .306250000000D+01  .577202614234D-08 -.219745765572D+01
     .340864062309D-06  .463806837797D-02  .403821468353D-05  .515374057770D+04
     .936000000000D+05  .372529029846D-07  .182608639233D+01  .447034835815D-07
     .927060179389D+00  .277875000000D+03  .170635244895D+01 -.866143221199D-08
     .116076263614D-09  .100000000000D+01  .197400000000D+04  .000000000000D+00
     .240000000000D+01  .000000000000D+00 -.838190317154D-08  .200000000000D+01
     .864060000000D+05  .400000000000D+01
22 17 11  6  2  0  0.0 -.179447233677D-03 -.127329258248D-10  .000000000000D+00
     .640000000000D+02  .484375000000D+01  .581559938591D-08 -.182106117803D+01
     .415369868279D-06  .716302159708D-02  .406056642532D-05  .515367089272D+04
     .936000000000D+05  .987201929092D-07  .187678375546D+01  .126659870148D-06
     .923787257139D+00  .277406250000D+03 -.165942293667D+01 -.869250493486D-08
     .896465912832D-10  .100000000000D+01  .197400000000D+04  .000000000000D+00
     .240000000000D+01  .000000000000D+00 -.176951289177D-07  .640000000000D+02
     .864060000000D+05  .400000000000D+01
23 17 11  6  2  0  0.0 -.218537170440D-03 -.227373675443D-12  .000000000000D+00
     .300000000000D+01 -.825000000000D+01  .474912639161D-08 -.253825564433D+01
    -.704079866409D-06  .118604842573D-01  .116173177958D-04  .515365770531D+04
     .936000000000D+05  .614672899246D-07  .296412371341D+01 -.158324837685D-06
     .944391421076D+00  .147000000000D+03 -.241630507870D+01 -.790675791963D-08
    -.432875173846D-09  .100000000000D+01  .197400000000D+04  .000000000000D+00
     .240000000000D+01  .000000000000D+00 -.204890966415D-07  .300000000000D+01
     .864060000000D+05  .400000000000D+01
24 17 11  6  2  0  0.0 -.418880954385D-04 -.568434188608D-12  .000000000000D+00
     .180000000000D+02  .168656250000D+03  .471305346045D-08 -.306499761304D+01
     .861287117004D-05  .619725347497D-02  .879168510437D-05  .515368019485D+04
     .936000000000D+05 -.316649675369D-07 -.229767479730D+01 -.651925802231D-07
     .943800327563D+00  .203093750000D+03  .473907228138D+00 -.815748264904D-08
     .325727853587D-09  .100000000000D+01  .197400000000D+04  .000000000000D+00
     .240000000000D+01  .000000000000D+00  .279396772385D-08  .180000000000D+02
     .864060000000D+05  .400000000000D+01
25 17 11  6  2  0  0.0 -.484813936055D-03 -.625277607469D-11  .000000000000D+00
     .750000000000D+02 -.147812500000D+02  .474055460598D-08  .124327710222D+01
    -.782310962677D-06  .664780242369D-02  .121071934700D-06  .515372930717D+04
     .936000000000D+05 -.106170773506D-06 -.121012093147D+01  .108033418655D-06
     .975751783818D+00  .384812500000D+03  .812033305132D+00 -.867678999456D-08
    -.142148778210D-09  .100000000000D+01  .197400000000D+04  .000000000000D+00
     .240000000000D+01  .000000000000D+00  .558793544769D-08  .750000000000D+02
     .864060000000D+05  .400000000000D+01
26 17 11  6  2  0  0.0 -.372366514057D-03  .133013600134D-10  .000000000000D+00
     .930000000000D+02 -.518750000000D+01  .507949729574D-08  .752283953521D+00
    -.298023223877D-06  .216565351002D-02 -.325962901115D-06  .515355724525D+04
     .936000000000D+05 -.558793544769D-07 -.122844113650D+01 -.372529029846D-08
     .957417357762D+00  .379718750000D+03 -.878182861898D-01 -.879679499325D-08
    -.136434254463D-09  .100000000000D+01  .197400000000D+04  .000000000000D+00
     .240000000000D+01  .000000000000D+00  .745058059692D-08  .930000000000D+02
     .864060000000D+05  .400000000000D+01
27 17 11  6  2  0  0.0  .344872940332D-03  .375166564481D-11  .000000000000D+00
     .830000000000D+02 -.143406250000D+03  .392373486788D-08 -.111829633733D+01
    -.745803117752D-05  .502643501386D-02  .965036451817D-05  .515368036461D+04
     .936000000000D+05  .188127160072D-06 -.170645068098D+00 -.108033418655D-06
     .976490814922D+00  .204156250000D+03  .374593422382D+00 -.782139722116D-08
    -.330013746397D-09  .100000000000D+01  .197400000000D+04  .000000000000D+00
     .240000000000D+01  .000000000000D+00  .186264514923D-08  .830000000000D+02
     .864060000000D+05  .400000000000D+01
28 17 11  6  2  0  0.0  .660129822791D-03  .306954461848D-11  .000000000000D+00
     .730000000000D+02 -.299062500000D+02  .440625496678D-08 -.257630291199D+00
    -.152736902237D-05  .199942898471D-01  .159442424774D-05  .515366097450D+04
     .936000000000D+05 -.199303030968D-06 -.112951414969D+01  .298023223877D-07
     .987276482748D+00  .364562500000D+03 -.155576715055D+01 -.871750597626D-08
    -.136791412197D-09  .100000000000D+01  .197400000000D+04  .000000000000D+00
     .485000000000D+01  .000000000000D+00 -.111758708954D-07  .730000000000D+02
     .864060000000D+05  .400000000000D+01
29 17 11  6  2  0  0.0  .541933812201D-03 -.488853402203D-11  .000000000000D+00
     .100000000000D+03 -.142843750000D+03  .376729978030D-08  .450592124856D-01
    -.745244324207D-05  .455428496934D-03  .109337270260D-04  .515378950119D+04
     .936000000000D+05  .149011611938D-07 -.107456564317D+00  .465661287308D-07
     .982862326401D+00  .179500000000D+03  .100877651724D+01 -.772425031746D-08
    -.264653881039D-09  .100000000000D+01  .197400000000D+04  .000000000000D+00
     .340000000000D+01  .000000000000D+00 -.102445483208D-07  .100000000000D+03
     .864060000000D+05  .400000000000D+01
31 17 11  6  2  0  0.0  .164019875228D-03 -.250111042988D-11  .000000000000D+00
     .930000000000D+02  .153250000000D+03  .434375236329D-08  .204741918147D+01
     .816397368908D-05  .870363565627D-02  .898726284504D-05  .515356179810D+04
     .936000000000D+05  .800937414169D-07 -.222975738596D+01  .163912773132D-06
     .965400037975D+00  .206031250000D+03 -.228271756298D+00 -.810355183117D-08
     .238938524177D-09  .100000000000D+01  .197400000000D+04  .000000000000D+00
     .240000000000D+01  .000000000000D+00 -.135041773319D-07  .930000000000D+02
     .864060000000D+05  .400000000000D+01
32 17 11  6  2  0  0.0 -.520771369338D-03 -.352429196937D-11  .000000000000D+00
     .690000000000D+02 -.187500000000D+00  .454197490577D-08 -.484943629883D+00
     .316649675369D-07  .147824059241D-02  .120922923088D-04  .515360504723D+04
     .936000000000D+05 -.745058059692D-08  .296781851783D+01 -.391155481339D-07
     .957993667024D+00  .145218750000D+03 -.261528998455D+01 -.792818738368D-08
    -.589667419158D-09  .100000000000D+01  .197400000000D+04  .000000000000D+00
     .240000000000D+01  .000000000000D+00  .465661287308D-09  .690000000000D+02
     .864060000000D+05  .400000000000D+01
28 17 11  6  1 59 44.0  .660135876387D-03  .318323145621D-11  .000000000000D+00
     .600000000000D+01 -.299062500000D+02  .440625496678D-08 -.259963905934D+00
    -.152736902237D-05  .199942929903D-01  .159442424774D-05  .515366096687D+04
     .935840000000D+05 -.199303030968D-06 -.112951399901D+01  .298023223877D-07
     .987276498840D+00  .364562500000D+03 -.155576720907D+01 -.871750597626D-08
    -.136791412197D-09  .100000000000D+01  .197400000000D+04  .000000000000D+00
     .240000000000D+01  .000000000000D+00 -.111758708954D-07  .600000000000D+01
     .885660000000D+05  .400000000000D+01
